{
  "norad_id": 66030,
  "name": "STARLINK-35431",
  "history": [
    {
      "epoch": "2026-03-28T18:22:13.381824Z",
      "apogee_km": 476.4490475533812,
      "perigee_km": 473.80601755375665,
      "latitude_deg": -1.6492051561347971e-06,
      "longitude_deg": -86.26673955875509,
      "height_km": 475.82152839052617,
      "semi_major_axis_km": 6853.264532553569,
      "eccentricity": 0.00019283,
      "inclination_deg": 53.1603,
      "raan_deg": 15.4702,
      "arg_perigee_deg": 81.1537,
      "mean_anomaly_deg": 278.9682,
      "mean_motion_rev_day": 15.30229318
    },
    {
      "epoch": "2026-03-29T02:12:29.487744Z",
      "apogee_km": 475.71132911125096,
      "perigee_km": 474.7408928947316,
      "latitude_deg": 1.7279016165418103e-05,
      "longitude_deg": 154.3221791950729,
      "height_km": 475.77500116844857,
      "semi_major_axis_km": 6853.363111002991,
      "eccentricity": 7.08e-05,
      "inclination_deg": 53.1597,
      "raan_deg": 13.9481,
      "arg_perigee_deg": 43.8048,
      "mean_anomaly_deg": 316.3009,
      "mean_motion_rev_day": 15.30196302
    },
    {
      "epoch": "2026-03-30T04:51:23.927328Z",
      "apogee_km": 475.8100732639914,
      "perigee_km": 474.61334151270785,
      "latitude_deg": 2.5071848990091293e-05,
      "longitude_deg": 108.34784091939376,
      "height_km": 476.0865985072293,
      "semi_major_axis_km": 6853.348707388349,
      "eccentricity": 8.731e-05,
      "inclination_deg": 53.1602,
      "raan_deg": 8.795,
      "arg_perigee_deg": 87.7265,
      "mean_anomaly_deg": 272.3836,
      "mean_motion_rev_day": 15.30201126
    },
    {
      "epoch": "2026-03-30T11:07:36.954624Z",
      "apogee_km": 475.9229520053059,
      "perigee_km": 474.5181507744228,
      "latitude_deg": 5.04924168649963e-05,
      "longitude_deg": 12.821968291513498,
      "height_km": 475.9430340249403,
      "semi_major_axis_km": 6853.357551389864,
      "eccentricity": 0.00010249,
      "inclination_deg": 53.1599,
      "raan_deg": 7.5809,
      "arg_perigee_deg": 75.4928,
      "mean_anomaly_deg": 284.6187,
      "mean_motion_rev_day": 15.30198164
    },
    {
      "epoch": "2026-03-30T22:05:59.161632Z",
      "apogee_km": 475.97452258396515,
      "perigee_km": 474.37852293078504,
      "latitude_deg": 5.4099754842653884e-06,
      "longitude_deg": -154.34273230083903,
      "height_km": 476.27547752551993,
      "semi_major_axis_km": 6853.313522757375,
      "eccentricity": 0.00011644,
      "inclination_deg": 53.1607,
      "raan_deg": 5.4594,
      "arg_perigee_deg": 104.5598,
      "mean_anomaly_deg": 255.5532,
      "mean_motion_rev_day": 15.3021291
    },
    {
      "epoch": "2026-03-31T01:14:05.553888Z",
      "apogee_km": 475.9211153099486,
      "perigee_km": 474.46889425813515,
      "latitude_deg": -5.619082670470377e-05,
      "longitude_deg": 157.89413321762672,
      "height_km": 475.98326426916805,
      "semi_major_axis_km": 6853.332004784042,
      "eccentricity": 0.00010595,
      "inclination_deg": 53.1598,
      "raan_deg": 4.8517,
      "arg_perigee_deg": 81.2779,
      "mean_anomaly_deg": 278.8341,
      "mean_motion_rev_day": 15.3020672
    },
    {
      "epoch": "2026-04-01T21:07:35.092128Z",
      "apogee_km": 475.84463936083193,
      "perigee_km": 474.4095658577453,
      "latitude_deg": 4.164424877979677e-06,
      "longitude_deg": -150.77615682877953,
      "height_km": 476.17992280579114,
      "semi_major_axis_km": 6853.264102609288,
      "eccentricity": 0.0001047,
      "inclination_deg": 53.1605,
      "raan_deg": 356.357,
      "arg_perigee_deg": 102.4219,
      "mean_anomaly_deg": 257.6899,
      "mean_motion_rev_day": 15.30229462
    },
    {
      "epoch": "2026-04-02T00:15:41.393664Z",
      "apogee_km": 475.97273302272697,
      "perigee_km": 474.42853898658177,
      "latitude_deg": -6.637805210724951e-05,
      "longitude_deg": 161.4627810551809,
      "height_km": 476.0954680324956,
      "semi_major_axis_km": 6853.337636004654,
      "eccentricity": 0.00011266,
      "inclination_deg": 53.1604,
      "raan_deg": 355.751,
      "arg_perigee_deg": 89.7408,
      "mean_anomaly_deg": 270.3721,
      "mean_motion_rev_day": 15.30204834
    },
    {
      "epoch": "2026-04-02T22:12:27.540864Z",
      "apogee_km": 476.0839226602493,
      "perigee_km": 474.14006711533966,
      "latitude_deg": 1.9322555099148948e-05,
      "longitude_deg": -172.87873089363467,
      "height_km": 475.9349799435831,
      "semi_major_axis_km": 6853.248994887794,
      "eccentricity": 0.00014182,
      "inclination_deg": 53.1612,
      "raan_deg": 351.503,
      "arg_perigee_deg": 85.5724,
      "mean_anomaly_deg": 274.5439,
      "mean_motion_rev_day": 15.30234522
    }
  ]
}